{"type": "FeatureCollection", "name": "tank_farm_1mile_fenceline_buffer", "crs": {"type": "name", "properties": {"name": "urn:ogc:def:crs:OGC:1.3:CRS84"}}, "features": [{"type": "Feature", "properties": {"name": "Tank farms \u2014 1-mile fence-line buffer", "definition": "Union of all 117 corrected OSM-mapped tank/parcel polygons assigned to the six South Portland tank farms (storage tanks, parcels containing tanks, and operator-named oil parcels; see Structure Audit Addendum), buffered by 1 statute mile (1609.344 m). A receptor is 'within 1 mile' iff its point falls inside this zone.", "source": "OpenStreetMap structures + analysis in this repo"}, "geometry": {"type": "Polygon", "coordinates": [[[-70.311284, 43.630561], [-70.311362, 43.630662], [-70.311782, 43.631283], [-70.312161, 43.631918], [-70.312498, 43.632565], [-70.312565, 43.632703], [-70.312877, 43.633406], [-70.313141, 43.634119], [-70.313354, 43.634841], [-70.313518, 43.63557], [-70.31363, 43.636304], [-70.31369, 43.637041], [-70.3137, 43.63778], [-70.313658, 43.638518], [-70.313565, 43.639253], [-70.313421, 43.639984], [-70.313226, 43.640709], [-70.313158, 43.640931], [-70.312922, 43.641622], [-70.312641, 43.642303], [-70.312315, 43.642974], [-70.311943, 43.643632], [-70.311733, 43.64398], [-70.311317, 43.644626], [-70.310858, 43.645256], [-70.31074, 43.645401], [-70.310669, 43.645506], [-70.310523, 43.64571], [-70.310006, 43.646387], [-70.309441, 43.647042], [-70.308828, 43.647675], [-70.308171, 43.648283], [-70.307853, 43.648561], [-70.307214, 43.649094], [-70.30654, 43.649603], [-70.305983, 43.650005], [-70.30538, 43.650421], [-70.304754, 43.650819], [-70.304399, 43.651035], [-70.304286, 43.651103], [-70.303833, 43.651376], [-70.303126, 43.651781], [-70.302396, 43.652162], [-70.301642, 43.652519], [-70.301175, 43.652729], [-70.300959, 43.652825], [-70.300289, 43.653119], [-70.299155, 43.65358], [-70.297981, 43.654021], [-70.297166, 43.654311], [-70.296333, 43.654574], [-70.295485, 43.654808], [-70.294809, 43.654983], [-70.294728, 43.655003], [-70.292594, 43.655546], [-70.291748, 43.655746], [-70.29089, 43.655918], [-70.290022, 43.656062], [-70.289147, 43.656178], [-70.288819, 43.656216], [-70.287861, 43.65631], [-70.286898, 43.65637], [-70.285931, 43.656395], [-70.284965, 43.656387], [-70.284, 43.656344], [-70.283038, 43.656268], [-70.282084, 43.656157], [-70.281137, 43.656014], [-70.280201, 43.655837], [-70.279278, 43.655627], [-70.27837, 43.655384], [-70.27748, 43.655111], [-70.276608, 43.654806], [-70.275758, 43.65447], [-70.274931, 43.654105], [-70.274129, 43.653711], [-70.274098, 43.653694], [-70.273529, 43.653895], [-70.272609, 43.654178], [-70.271671, 43.654428], [-70.270717, 43.654644], [-70.269749, 43.654824], [-70.26877, 43.654969], [-70.267782, 43.655078], [-70.266788, 43.655151], [-70.265791, 43.655187], [-70.264792, 43.655187], [-70.263794, 43.655151], [-70.2628, 43.655078], [-70.261812, 43.65497], [-70.260833, 43.654825], [-70.260476, 43.654759], [-70.260427, 43.654882], [-70.260081, 43.655612], [-70.259682, 43.656329], [-70.259232, 43.657028], [-70.259132, 43.657164], [-70.258987, 43.657466], [-70.258625, 43.658119], [-70.258219, 43.658759], [-70.257771, 43.659384], [-70.257283, 43.659992], [-70.256754, 43.660582], [-70.256187, 43.661153], [-70.255734, 43.661566], [-70.255201, 43.662056], [-70.254533, 43.662611], [-70.253827, 43.663141], [-70.253085, 43.663643], [-70.252937, 43.663739], [-70.252176, 43.664205], [-70.251385, 43.664643], [-70.250564, 43.665051], [-70.250031, 43.665289], [-70.249307, 43.665675], [-70.248497, 43.666064], [-70.247662, 43.666424], [-70.246804, 43.666755], [-70.245925, 43.667054], [-70.245027, 43.667322], [-70.244112, 43.667558], [-70.243183, 43.667761], [-70.242241, 43.667931], [-70.241289, 43.668067], [-70.240329, 43.66817], [-70.239363, 43.668239], [-70.238394, 43.668273], [-70.237424, 43.668273], [-70.236455, 43.668238], [-70.235489, 43.66817], [-70.234529, 43.668067], [-70.233577, 43.66793], [-70.232636, 43.66776], [-70.232593, 43.667751], [-70.232174, 43.66778], [-70.231192, 43.667812], [-70.23021, 43.667809], [-70.229229, 43.66777], [-70.228252, 43.667697], [-70.227281, 43.667589], [-70.226318, 43.667445], [-70.225367, 43.667268], [-70.224428, 43.667057], [-70.223505, 43.666812], [-70.223269, 43.666745], [-70.222369, 43.666469], [-70.22149, 43.666162], [-70.220631, 43.665824], [-70.219797, 43.665456], [-70.218988, 43.665059], [-70.218207, 43.664633], [-70.217455, 43.66418], [-70.216734, 43.663701], [-70.216047, 43.663197], [-70.215394, 43.662669], [-70.214777, 43.662118], [-70.214197, 43.661546], [-70.213657, 43.660954], [-70.213157, 43.660343], [-70.212699, 43.659716], [-70.212283, 43.659073], [-70.21191, 43.658416], [-70.211583, 43.657746], [-70.2113, 43.657066], [-70.211063, 43.656376], [-70.210873, 43.655678], [-70.21073, 43.654975], [-70.210719, 43.654914], [-70.210624, 43.654211], [-70.210575, 43.653505], [-70.210573, 43.652799], [-70.210619, 43.652093], [-70.210711, 43.65139], [-70.21085, 43.650691], [-70.211035, 43.649998], [-70.211266, 43.649312], [-70.211543, 43.648635], [-70.211864, 43.647968], [-70.21223, 43.647314], [-70.213111, 43.645839], [-70.213142, 43.645565], [-70.213271, 43.644853], [-70.213448, 43.644147], [-70.213673, 43.643448], [-70.213945, 43.642758], [-70.214263, 43.642079], [-70.214626, 43.641411], [-70.215035, 43.640758], [-70.215487, 43.64012], [-70.215981, 43.639499], [-70.216263, 43.639165], [-70.216384, 43.639023], [-70.216489, 43.638902], [-70.216954, 43.638388], [-70.217108, 43.638225], [-70.217686, 43.637646], [-70.218303, 43.637089], [-70.218496, 43.636923], [-70.219323, 43.636254], [-70.219747, 43.635932], [-70.219913, 43.635808], [-70.220853, 43.63511], [-70.22156, 43.634611], [-70.222299, 43.634139], [-70.223069, 43.633693], [-70.223869, 43.633275], [-70.224696, 43.632887], [-70.225548, 43.632528], [-70.226423, 43.632201], [-70.227319, 43.631906], [-70.228235, 43.631643], [-70.229166, 43.631413], [-70.230113, 43.631217], [-70.231071, 43.631055], [-70.232039, 43.630928], [-70.233014, 43.630835], [-70.233995, 43.630778], [-70.234978, 43.630756], [-70.235962, 43.630769], [-70.236943, 43.630818], [-70.23792, 43.630902], [-70.23889, 43.63102], [-70.23979, 43.631164], [-70.240283, 43.630567], [-70.240832, 43.62997], [-70.240867, 43.629934], [-70.241448, 43.629364], [-70.242067, 43.628816], [-70.242721, 43.62829], [-70.243364, 43.627822], [-70.243361, 43.627762], [-70.243377, 43.627057], [-70.24344, 43.626354], [-70.24364, 43.624724], [-70.243745, 43.624047], [-70.243893, 43.623374], [-70.244166, 43.622298], [-70.244368, 43.621597], [-70.244618, 43.620903], [-70.244914, 43.62022], [-70.245256, 43.619548], [-70.245643, 43.618889], [-70.246074, 43.618245], [-70.246547, 43.617617], [-70.247063, 43.617006], [-70.247619, 43.616415], [-70.248215, 43.615845], [-70.248848, 43.615297], [-70.249518, 43.614772], [-70.250222, 43.614271], [-70.250959, 43.613797], [-70.251727, 43.61335], [-70.252524, 43.61293], [-70.253349, 43.61254], [-70.254199, 43.61218], [-70.255073, 43.611851], [-70.255968, 43.611553], [-70.256881, 43.611288], [-70.257812, 43.611056], [-70.258757, 43.610858], [-70.259714, 43.610694], [-70.260681, 43.610564], [-70.261656, 43.61047], [-70.262635, 43.61041], [-70.263618, 43.610385], [-70.264071, 43.610382], [-70.264941, 43.610209], [-70.265915, 43.610053], [-70.2669, 43.609933], [-70.267891, 43.609848], [-70.268662, 43.609811], [-70.269163, 43.609744], [-70.27015, 43.609649], [-70.271141, 43.609591], [-70.272135, 43.609568], [-70.27313, 43.609581], [-70.274122, 43.609631], [-70.27511, 43.609716], [-70.276091, 43.609837], [-70.277062, 43.609994], [-70.278021, 43.610185], [-70.278966, 43.610411], [-70.279895, 43.610672], [-70.280804, 43.610965], [-70.281693, 43.611291], [-70.282558, 43.611649], [-70.283397, 43.612038], [-70.284209, 43.612457], [-70.284991, 43.612905], [-70.285742, 43.613381], [-70.286459, 43.613883], [-70.287141, 43.614411], [-70.287471, 43.614693], [-70.287585, 43.614771], [-70.288272, 43.615293], [-70.288922, 43.615838], [-70.289381, 43.616264], [-70.290016, 43.616242], [-70.290973, 43.616242], [-70.291929, 43.616276], [-70.292882, 43.616343], [-70.293829, 43.616444], [-70.294769, 43.616577], [-70.295699, 43.616743], [-70.296617, 43.616942], [-70.29752, 43.617172], [-70.298408, 43.617433], [-70.299277, 43.617726], [-70.299909, 43.617951], [-70.300628, 43.618222], [-70.300844, 43.618307], [-70.301688, 43.61866], [-70.302507, 43.619043], [-70.3033, 43.619453], [-70.304064, 43.619892], [-70.304798, 43.620357], [-70.3055, 43.620848], [-70.306169, 43.621363], [-70.306802, 43.621901], [-70.307399, 43.622461], [-70.307957, 43.623041], [-70.308476, 43.623641], [-70.308955, 43.624258], [-70.309391, 43.624892], [-70.309785, 43.62554], [-70.310135, 43.626202], [-70.31044, 43.626875], [-70.3107, 43.627558], [-70.310915, 43.628249], [-70.311082, 43.628948], [-70.311203, 43.629651], [-70.311277, 43.630358], [-70.311284, 43.630561]]]}}]}